NORAD_CAT_ID,OBJECT_NAME,OBJECT_TYPE,EPOCH,MEAN_MOTION,ECCENTRICITY,INCLINATION,RA_OF_ASC_NODE,ARG_OF_PERICENTER,MEAN_ANOMALY,BSTAR,MEAN_MOTION_DOT,MEAN_MOTION_DDOT,TLE_LINE0,TLE_LINE1,TLE_LINE2,SEMIMAJOR_AXIS,PERIOD,APOGEE,PERIGEE,DECAYED
53005.0,STARLINK-4288,PAYLOAD,2022-08-27 14:00:01,15.49842533,0.0001157,53.2183,128.566,76.6209,224.693,0.00097023,0.00054918,0.0,0 STARLINK-4288,1 53005U 22076V   22239.58334491  .00054918  00000-0  97023-3 0  9996,2 53005  53.2183 128.5660 0001157  76.6209 224.6930 15.49842533  1303,6795.323,92.913,417.975,416.402,0.0
53005.0,STARLINK-4288,PAYLOAD,2022-08-27 22:00:00,15.49886273,0.0001239,53.2184,126.9746,69.6553,292.5419,-0.00039708,-0.00022923,0.0,0 STARLINK-4288,1 53005U 22076V   22239.91667824 -.00022923  00000-0 -39708-3 0  9991,2 53005  53.2184 126.9746 0001239  69.6553 292.5419 15.49886273  1301,6795.195,92.91,417.902,416.219,0.0
53005.0,STARLINK-4288,PAYLOAD,2022-08-28 14:00:01,15.4986874,0.0001132,53.2179,123.7878,76.3911,47.6331,0.00091222,0.00051634,0.0,0 STARLINK-4288,1 53005U 22076V   22240.58334491  .00051634  00000-0  91222-3 0  9995,2 53005  53.2179 123.7878 0001132  76.3911  47.6331 15.49868740  1302,6795.246999999999,92.911,417.881,416.342,0.0
53005.0,STARLINK-4288,PAYLOAD,2022-08-28 22:00:00,15.50073115,0.0001320999999999,53.218,122.2006,70.0839,114.8272,-0.010606,-0.00564661,0.0,0 STARLINK-4288,1 53005U 22076V   22240.91667824 -.00564661  00000-0 -10606-1 0  9997,2 53005  53.2180 122.2006 0001321  70.0839 114.8272 15.50073115  1308,6794.649,92.899,417.412,415.617,0.0
53005.0,STARLINK-4288,PAYLOAD,2022-08-29 14:00:01,15.49152067,0.0001165,53.2174,119.0212,70.2886,235.9217,-0.021026,-0.01055981,0.0,0 STARLINK-4288,1 53005U 22076V   22241.58334491 -.01055981  00000-0 -21026-1 0  9991,2 53005  53.2174 119.0212 0001165  70.2886 235.9217 15.49152067  1300,6797.342,92.954,419.999,418.415,0.0
53005.0,STARLINK-4288,PAYLOAD,2022-08-29 16:00:00,15.48999226,0.0001213,53.2175,118.6226,57.1751,353.9952,-0.022211,-0.01104409,0.0,0 STARLINK-4288,1 53005U 22076V   22241.66667824 -.01104409  00000-0 -22211-1 0  9996,2 53005  53.2175 118.6226 0001213  57.1751 353.9952 15.48999226  8837,6797.7890000000025,92.963,420.479,418.83,0.0
53005.0,STARLINK-4288,PAYLOAD,2022-08-29 22:00:00,15.48395242,0.0001264,53.2175,117.4352,55.286,310.4912,-0.021674,-0.01059475,0.0,0 STARLINK-4288,1 53005U 22076V   22241.91667824 -.01059475  00000-0 -21674-1 0  9998,2 53005  53.2175 117.4352 0001264  55.2860 310.4912 15.48395242  1307,6799.557,93.0,422.282,420.56300000000016,0.0
53005.0,STARLINK-4288,PAYLOAD,2022-08-30 14:00:01,15.46875365,0.000133,53.2175,114.263,62.4414,59.7379,-0.022835,-0.0105843999999999,0.0,0 STARLINK-4288,1 53005U 22076V   22242.58334491 -.01058440  00000-0 -22835-1 0  9994,2 53005  53.2175 114.2630 0001330  62.4414  59.7379 15.46875365  8977,6804.01,93.091,426.78,424.97,0.0
53005.0,STARLINK-4288,PAYLOAD,2022-08-30 22:00:00,15.46146965,0.0001291,53.2179,112.6808,74.4415,104.5522,-0.024374,-0.01113268,0.0,0 STARLINK-4288,1 53005U 22076V   22242.91667824 -.01113268  00000-0 -24374-1 0  9990,2 53005  53.2179 112.6808 0001291  74.4415 104.5522 15.46146965  1306,6806.147,93.135,428.891,427.133,0.0
53005.0,STARLINK-4288,PAYLOAD,2022-08-31 14:00:01,15.44595155,0.000125,53.2175,109.521,67.2001,222.7352,-0.0246139999999999,-0.01054744,0.0,0 STARLINK-4288,1 53005U 22076V   22243.58334491 -.01054744  00000-0 -24614-1 0  9995,2 53005  53.2175 109.5210 0001250  67.2001 222.7352 15.44595155  1301,6810.705,93.228,433.421,431.719,0.0
53005.0,STARLINK-4288,PAYLOAD,2022-08-31 22:00:00,15.43869419,0.0001225,53.2176,107.9445,67.822,276.1864,-0.026299,-0.01110932,0.0,0 STARLINK-4288,1 53005U 22076V   22243.91667824 -.01110932  00000-0 -26299-1 0  9994,2 53005  53.2176 107.9445 0001225  67.8220 276.1864 15.43869419  1302,6812.839,93.272,435.539,433.87,0.0
53005.0,STARLINK-4288,PAYLOAD,2022-09-01 14:00:01,15.42368526,0.0001252999999999,53.2172,104.7936,58.7441,30.7673,-0.028244,-0.01131949,0.0,0 STARLINK-4288,1 53005U 22076V   22244.58335648 -.01131949  00000-0 -28244-1 0  9997,2 53005  53.2172 104.7936 0001253  58.7441  30.7673 15.42368526  9282,6817.2580000000025,93.363,439.977,438.269,0.0
53005.0,STARLINK-4288,PAYLOAD,2022-09-01 22:00:00,15.41558667,0.0001492,53.2173,103.2259,56.4198,84.4107,-0.02733,-0.01071182,0.0,0 STARLINK-4288,1 53005U 22076V   22244.91667824 -.01071182  00000-0 -27330-1 0  9995,2 53005  53.2173 103.2259 0001492  56.4198  84.4107 15.41558667  1303,6819.646,93.412,442.528,440.49300000000005,0.0
53005.0,STARLINK-4288,PAYLOAD,2022-09-02 06:00:00,15.40835732,0.0001355,53.2173,101.654,58.0959,133.1608,-0.0294399999999999,-0.0112166,0.0,0 STARLINK-4288,1 53005U 22076V   22245.25001157 -.01121660  00000-0 -29440-1 0  9995,2 53005  53.2173 101.6540 0001355  58.0959 133.1608 15.40835732  9394,6821.778,93.456,444.568,442.719,0.0
53005.0,STARLINK-4288,PAYLOAD,2022-09-02 14:00:01,15.40080443,0.0001371,53.2173,100.0843,69.8249,170.9567,-0.030172,-0.01121046,0.0,0 STARLINK-4288,1 53005U 22076V   22245.58334491 -.01121046  00000-0 -30172-1 0  9993,2 53005  53.2173 100.0843 0001371  69.8249 170.9567 15.40080443  1300,6824.009,93.502,446.809,444.93800000000016,0.0
53005.0,STARLINK-4288,PAYLOAD,2022-09-02 22:00:01,15.39300364,0.0001257,53.2177,98.5205,80.4929,208.9818,-0.030256,-0.01097549,0.0,0 STARLINK-4288,1 53005U 22076V   22245.91668981 -.01097549  00000-0 -30256-1 0  9997,2 53005  53.2177  98.5205 0001257  80.4929 208.9818 15.39300364  1300,6826.314,93.549,449.037,447.321,0.0
53005.0,STARLINK-4288,PAYLOAD,2022-09-03 00:00:00,15.39092921,0.0001198,53.2177,98.1302,73.3961,318.0349,-0.0297699999999999,-0.01074543,0.0,0 STARLINK-4288,1 53005U 22076V   22246.00001157 -.01074543  00000-0 -29770-1 0  9992,2 53005  53.2177  98.1302 0001198  73.3961 318.0349 15.39092921  9504,6826.927,93.562,449.61,447.974,0.0
53005.0,STARLINK-4288,PAYLOAD,2022-09-03 14:00:01,15.37806773,0.0001222,53.2176,95.3912,62.6917,321.2007,-0.032688,-0.01126275,0.0,0 STARLINK-4288,1 53005U 22076V   22246.58334491 -.01126275  00000-0 -32688-1 0  9997,2 53005  53.2176  95.3912 0001222  62.6917 321.2007 15.37806773  1302,6830.733,93.64,453.4330000000001,451.764,0.0
53005.0,STARLINK-4288,PAYLOAD,2022-09-03 22:00:00,15.37002619,0.0001393,53.2175,93.8345,55.0686,14.727,-0.0318,-0.01072084,0.0,0 STARLINK-4288,1 53005U 22076V   22246.91667824 -.01072084  00000-0 -31800-1 0  9996,2 53005  53.2175  93.8345 0001393  55.0686  14.7270 15.37002619  1305,6833.116,93.689,455.932,454.029,0.0
53005.0,STARLINK-4288,PAYLOAD,2022-09-04 14:00:01,15.35504745,0.0001588,53.2178,90.7146,62.1965,96.6713,-0.03413,-0.01094209,0.0,0 STARLINK-4288,1 53005U 22076V   22247.58335648 -.01094209  00000-0 -34130-1 0  9998,2 53005  53.2178  90.7146 0001588  62.1965  96.6713 15.35504745  1304,6837.559,93.78,460.509,458.338,0.0
53005.0,STARLINK-4288,PAYLOAD,2022-09-04 16:00:00,15.35308825,0.0001464,53.2177,90.3262,63.7245,195.9562,-0.034233,-0.01090875,0.0,0 STARLINK-4288,1 53005U 22076V   22247.66667824 -.01090875  00000-0 -34233-1 0  9990,2 53005  53.2177  90.3262 0001464  63.7245 195.9562 15.35308825  9763,6838.14,93.792,461.006,459.004,0.0
53005.0,STARLINK-4288,PAYLOAD,2022-09-04 20:00:01,15.34912312,0.0001541999999999,53.2175,89.5514,49.6937,51.5646,-0.033917,-0.01069051,0.0,0 STARLINK-4288,1 53005U 22076V   22247.83334491 -.01069051  00000-0 -33917-1 0  9990,2 53005  53.2175  89.5514 0001542  49.6937  51.5646 15.34912312  1302,6839.318,93.816,462.23800000000006,460.128,0.0
53005.0,STARLINK-4288,PAYLOAD,2022-09-05 14:00:01,15.33202608,0.0001339,53.2177,86.0558,64.485,221.0184,-0.0357209999999999,-0.01066295,0.0,0 STARLINK-4288,1 53005U 22076V   22248.58334491 -.01066295  00000-0 -35721-1 0  9995,2 53005  53.2177  86.0558 0001339  64.4850 221.0184 15.33202608  1307,6844.401,93.921,467.1830000000001,465.35,0.0
53005.0,STARLINK-4288,PAYLOAD,2022-09-05 20:00:01,15.32631839,0.0001509,53.2176,84.8948,60.6281,165.2633,-0.036341,-0.01065465,0.0,0 STARLINK-4288,1 53005U 22076V   22248.83334491 -.01065465  00000-0 -36341-1 0  9990,2 53005  53.2176  84.8948 0001509  60.6281 165.2633 15.32631839  9947,6846.101,93.956,468.999,466.9330000000001,0.0
53005.0,STARLINK-4288,PAYLOAD,2022-09-05 22:00:00,15.32469144,0.0001236,53.218,84.5062,65.794,260.0989,-0.037857,-0.01100916,0.0,0 STARLINK-4288,1 53005U 22076V   22248.91667824 -.01100916  00000-0 -37857-1 0  9992,2 53005  53.2180  84.5062 0001236  65.7940 260.0989 15.32469144  1309,6846.585,93.966,469.296,467.604,0.0
53005.0,STARLINK-4288,PAYLOAD,2022-09-06 14:00:01,15.30923573,0.0001363,53.2177,81.4116,53.377,350.5986,-0.038363,-0.01065818,0.0,0 STARLINK-4288,1 53005U 22076V   22249.58334491 -.01065818  00000-0 -38363-1 0  9991,2 53005  53.2177  81.4116 0001363  53.3770 350.5986 15.30923573  1307,6851.191999999999,94.061,473.991,472.124,0.0
53005.0,STARLINK-4288,PAYLOAD,2022-09-06 22:00:00,15.30164571,0.0001431,53.2176,79.8688,54.9518,26.6881,-0.039337,-0.01067176,0.0,0 STARLINK-4288,1 53005U 22076V   22249.91667824 -.01067176  00000-0 -39337-1 0  9998,2 53005  53.2176  79.8688 0001431  54.9518  26.6881 15.30164571  1304,6853.458000000001,94.108,476.304,474.342,0.0
53005.0,STARLINK-4288,PAYLOAD,2022-09-07 04:00:00,15.29595528,0.0001247,53.2174,78.7104,60.5855,318.7049,-0.040082,-0.01068184,0.0,0 STARLINK-4288,1 53005U 22076V   22250.16667824 -.01068184  00000-0 -40082-1 0  9996,2 53005  53.2174  78.7104 0001247  60.5855 318.7049 15.29595528 10146,6855.158,94.143,477.877,476.168,0.0
53005.0,STARLINK-4288,PAYLOAD,2022-09-07 14:00:01,15.28644255,0.0001455,53.2179,76.7833,64.3849,89.8489,-0.041117,-0.01064359,0.0,0 STARLINK-4288,1 53005U 22076V   22250.58334491 -.01064359  00000-0 -41117-1 0  9993,2 53005  53.2179  76.7833 0001455  64.3849  89.8489 15.28644255  1307,6858.001,94.201,480.864,478.86800000000005,0.0
